NORAD_CAT_ID,OBJECT_NAME,OBJECT_TYPE,EPOCH,MEAN_MOTION,ECCENTRICITY,INCLINATION,RA_OF_ASC_NODE,ARG_OF_PERICENTER,MEAN_ANOMALY,BSTAR,MEAN_MOTION_DOT,MEAN_MOTION_DDOT,TLE_LINE0,TLE_LINE1,TLE_LINE2,SEMIMAJOR_AXIS,PERIOD,APOGEE,PERIGEE,DECAYED
56789.0,STARLINK-6325,PAYLOAD,2023-12-27 21:16:07,15.69924431,0.0003729,69.9978,181.1473,264.902,95.175,8.6641e-06,8.29e-06,0.0,0 STARLINK-6325,1 56789U 23078Y   23361.88619669  .00000829  00000-0  86641-5 0  9992,2 56789  69.9978 181.1473 0003729 264.9020  95.1750 15.69924431 33775,6737.25,91.724,361.628,356.603,0.0
56789.0,STARLINK-6325,PAYLOAD,2023-12-28 14:05:24,15.69929865,0.0002475,69.9997,179.1758,261.3146,98.7769,-1.2223e-05,-1.682e-05,0.0,0 STARLINK-6325,1 56789U 23078Y   23362.58708444 -.00001682  00000-0 -12223-4 0  9994,2 56789  69.9997 179.1758 0002475 261.3146  98.7769 15.69929865 33883,6737.235,91.724,360.767,357.432,0.0
56789.0,STARLINK-6325,PAYLOAD,2023-12-28 21:44:09,15.69937247,0.0002846,69.9992,178.2792,267.6019,92.4851,-3.1444e-05,-3.993e-05,0.0,0 STARLINK-6325,1 56789U 23078Y   23362.90566606 -.00003993  00000-0 -31444-4 0  9995,2 56789  69.9992 178.2792 0002846 267.6019  92.4851 15.69937247 33938,6737.214,91.723,360.996,357.161,0.0
56789.0,STARLINK-6325,PAYLOAD,2023-12-29 14:33:26,15.69919352,0.0003278,69.9983,176.3086,264.2641,95.8181,1.0659e-05,1.069e-05,0.0,0 STARLINK-6325,1 56789U 23078Y   23363.60655110  .00001069  00000-0  10659-4 0  9997,2 56789  69.9983 176.3086 0003278 264.2641  95.8181 15.69919352 34040,6737.265,91.724,361.338,356.921,0.0
56789.0,STARLINK-6325,PAYLOAD,2023-12-29 19:08:41,15.69922085,0.0003322,69.9986,175.7728,267.0416,93.04,1.1366e-05,1.154e-05,0.0,0 STARLINK-6325,1 56789U 23078Y   23363.79770014  .00001154  00000-0  11366-4 0  9999,2 56789  69.9986 175.7728 0003322 267.0416  93.0400 15.69922085 33668,6737.257,91.724,361.36,356.884,0.0
56789.0,STARLINK-6325,PAYLOAD,2023-12-29 20:40:26,15.69925625,0.0003309,69.9985,175.5934,266.8595,93.2222,1.4749e-05,1.561e-05,0.0,0 STARLINK-6325,1 56789U 23078Y   23363.86141357  .00001561  00000-0  14749-4 0  9999,2 56789  69.9985 175.5934 0003309 266.8595  93.2222 15.69925625 34088,6737.247,91.724,361.341,356.882,0.0
56789.0,STARLINK-6325,PAYLOAD,2023-12-30 15:01:28,15.69918212,0.0003294,69.9987,173.4435,266.4092,93.6727,-2.4664e-06,-5.09e-06,0.0,0 STARLINK-6325,1 56789U 23078Y   23364.62602410 -.00000509  00000-0 -24664-5 0  9997,2 56789  69.9987 173.4435 0003294 266.4092  93.6727 15.69918212 34206,6737.268,91.725,361.352,356.914,0.0
56789.0,STARLINK-6325,PAYLOAD,2023-12-30 19:36:43,15.69949662,0.0002558,69.9997,172.9088,247.1477,112.9449,-6.2161e-05,-7.687e-05,0.0,0 STARLINK-6325,1 56789U 23078Y   23364.81716987 -.00007687  00000-0 -62161-4 0  9990,2 56789  69.9997 172.9088 0002558 247.1477 112.9449 15.69949662 33826,6737.178,91.723,360.766,357.32,0.0
56789.0,STARLINK-6325,PAYLOAD,2023-12-30 21:08:28,15.6993378,0.0002658,69.9992,172.7283,250.7661,109.3247,-2.2274e-05,-2.89e-05,0.0,0 STARLINK-6325,1 56789U 23078Y   23364.88088626 -.00002890  00000-0 -22274-4 0  9991,2 56789  69.9992 172.7283 0002658 250.7661 109.3247 15.69933780 34249,6737.223,91.724,360.879,357.298,0.0
56789.0,STARLINK-6325,PAYLOAD,2023-12-31 12:25:59,15.69924666,0.0003155,69.9987,170.9385,256.6214,103.463,2.3643e-06,7.2e-07,0.0,0 STARLINK-6325,1 56789U 23078Y   23365.51805367  .00000072  00000-0  23643-5 0  9991,2 56789  69.9987 170.9385 0003155 256.6214 103.4630 15.69924666 33937,6737.25,91.724,361.24,356.989,0.0
56789.0,STARLINK-6325,PAYLOAD,2023-12-31 20:04:45,15.69921851,0.0003048,69.9995,170.0405,269.8762,90.2084,1.0664e-05,1.07e-05,0.0,0 STARLINK-6325,1 56789U 23078Y   23365.83663788  .00001070  00000-0  10664-4 0  9992,2 56789  69.9995 170.0405 0003048 269.8762  90.2084 15.69921851 34395,6737.258,91.724,361.176,357.069,0.0
56789.0,STARLINK-6325,PAYLOAD,2024-01-01 14:25:46,15.69922683,0.0003605,69.997,167.8894,267.5839,92.4944,8.5837e-06,8.19e-06,0.0,0 STARLINK-6325,1 56789U 23078Y   24001.60123693  .00000819  00000-0  85837-5 0  9996,2 56789  69.9970 167.8894 0003605 267.5839  92.4944 15.69922683 34510,6737.255,91.724,361.549,356.691,0.0
56789.0,STARLINK-6325,PAYLOAD,2024-01-01 19:01:02,15.69900664,0.0003264,69.9983,167.3518,267.322,92.7603,3.1846e-05,3.614e-05,0.0,0 STARLINK-6325,1 56789U 23078Y   24001.79239547  .00003614  00000-0  31846-4 0  9998,2 56789  69.9983 167.3518 0003264 267.3220  92.7603 15.69900664 34133,6737.318,91.726,361.382,356.984,0.0
56789.0,STARLINK-6325,PAYLOAD,2024-01-01 20:32:47,15.69915551,0.0003224,69.9983,167.1727,262.7582,97.3247,4.6334e-06,3.44e-06,0.0,0 STARLINK-6325,1 56789U 23078Y   24001.85611001  .00000344  00000-0  46334-5 0  9990,2 56789  69.9983 167.1727 0003224 262.7582  97.3247 15.69915551 34146,6737.276,91.725,361.313,356.969,0.0
56789.0,STARLINK-6325,PAYLOAD,2024-01-02 11:50:18,15.69929827,0.0003522,69.9976,165.3818,266.5719,93.5074,-3.5679e-06,-6.42e-06,0.0,0 STARLINK-6325,1 56789U 23078Y   24002.49327070 -.00000642  00000-0 -35679-5 0  9994,2 56789  69.9976 165.3818 0003522 266.5719  93.5074 15.69929827 34242,6737.235,91.724,361.473,356.727,0.0
56789.0,STARLINK-6325,PAYLOAD,2024-01-02 13:22:03,15.69930296,0.0003503,69.9981,165.2015,269.5765,90.5029,8.2236e-07,-1.14e-06,0.0,0 STARLINK-6325,1 56789U 23078Y   24002.55698584 -.00000114  00000-0  82236-6 0  9997,2 56789  69.9981 165.2015 0003503 269.5765  90.5029 15.69930296 34664,6737.233,91.724,361.458,356.738,0.0
56789.0,STARLINK-6325,PAYLOAD,2024-01-02 19:29:04,15.69922915,0.0003437,69.9984,164.4839,264.0657,96.0147,-4.7638e-06,-7.86e-06,0.0,0 STARLINK-6325,1 56789U 23078Y   24002.81185966 -.00000786  00000-0 -47638-5 0  9993,2 56789  69.9984 164.4839 0003437 264.0657  96.0147 15.69922915 34298,6737.255,91.724,361.435,356.804,0.0
56789.0,STARLINK-6325,PAYLOAD,2024-01-02 21:00:49,15.6992256,0.0003774,69.999,164.3054,271.7077,88.3687,-1.7271e-06,-4.21e-06,0.0,0 STARLINK-6325,1 56789U 23078Y   24002.87557429 -.00000421  00000-0 -17271-5 0  9992,2 56789  69.9990 164.3054 0003774 271.7077  88.3687 15.69922560 34714,6737.256,91.724,361.663,356.578,0.0
56789.0,STARLINK-6325,PAYLOAD,2024-01-03 13:50:05,15.69921441,0.0003858,69.9978,162.3383,273.4131,86.6624,1.1111e-05,1.123e-05,0.0,0 STARLINK-6325,1 56789U 23078Y   24003.57645505  .00001123  00000-0  11111-4 0  9997,2 56789  69.9978 162.3383 0003858 273.4131  86.6624 15.69921441 34827,6737.259,91.724,361.723,356.525,0.0
56789.0,STARLINK-6325,PAYLOAD,2024-01-03 18:25:20,15.69922895,0.0003943,69.9978,161.8008,271.461,88.6134,1.1875e-05,1.215e-05,0.0,0 STARLINK-6325,1 56789U 23078Y   24003.76760406  .00001215  00000-0  11875-4 0  9995,2 56789  69.9978 161.8008 0003943 271.4610  88.6134 15.69922895 34855,6737.255,91.724,361.776,356.463,0.0
56789.0,STARLINK-6325,PAYLOAD,2024-01-04 11:14:38,15.69924671,0.0003889,69.9974,159.8284,277.0568,83.0185,-1.4207e-05,-1.921e-05,0.0,0 STARLINK-6325,1 56789U 23078Y   24004.46849637 -.00001921  00000-0 -14207-4 0  9995,2 56789  69.9974 159.8284 0003889 277.0568  83.0185 15.69924671 34553,6737.25,91.724,361.735,356.494,0.0
56789.0,STARLINK-6325,PAYLOAD,2024-01-04 12:46:23,15.69923949,0.0003829,69.9975,159.6491,276.7795,83.2964,-1.2549e-05,-1.722e-05,0.0,0 STARLINK-6325,1 56789U 23078Y   24004.53221295 -.00001722  00000-0 -12549-4 0  9993,2 56789  69.9975 159.6491 0003829 276.7795  83.2964 15.69923949 34974,6737.252,91.724,361.696,356.537,0.0
56789.0,STARLINK-6325,PAYLOAD,2024-01-04 20:25:08,15.69931231,0.0003651,69.9976,158.7539,273.1179,86.9599,-5.511e-06,-8.76e-06,0.0,0 STARLINK-6325,1 56789U 23078Y   24004.85078934 -.00000876  00000-0 -55110-5 0  9999,2 56789  69.9976 158.7539 0003651 273.1179  86.9599 15.69931231 34616,6737.231,91.724,361.556,356.636,0.0
56789.0,STARLINK-6325,PAYLOAD,2024-01-05 13:14:24,15.69921832,0.0003355,69.9979,156.784,270.4394,89.6417,1.0359e-05,1.033e-05,0.0,0 STARLINK-6325,1 56789U 23078Y   24005.55167469  .00001033  00000-0  10359-4 0  9998,2 56789  69.9979 156.7840 0003355 270.4394  89.6417 15.69921832 35135,6737.258,91.724,361.383,356.862,0.0
56789.0,STARLINK-6325,PAYLOAD,2024-01-05 19:21:25,15.69918963,0.0003456,69.9976,156.0665,272.6237,87.4563,6.5798e-06,5.78e-06,0.0,0 STARLINK-6325,1 56789U 23078Y   24005.80654477  .00000578  00000-0  65798-5 0  9997,2 56789  69.9976 156.0665 0003456 272.6237  87.4563 15.69918963 34769,6737.266,91.724,361.459,356.802,0.0
56789.0,STARLINK-6325,PAYLOAD,2024-01-06 12:10:42,15.6992017,0.0003576,69.9972,154.0965,275.0432,85.0356,-1.4953e-06,-3.93e-06,0.0,0 STARLINK-6325,1 56789U 23078Y   24006.50743150 -.00000393  00000-0 -14953-5 0  9996,2 56789  69.9972 154.0965 0003576 275.0432  85.0356 15.69920170 35288,6737.262,91.724,361.537,356.718,0.0
56789.0,STARLINK-6325,PAYLOAD,2024-01-06 19:49:27,15.69945202,0.0003628,69.9975,153.2012,273.0379,87.0401,-3.87e-05,-4.868e-05,0.0,0 STARLINK-6325,1 56789U 23078Y   24006.82600775 -.00004868  00000-0 -38700-4 0  9992,2 56789  69.9975 153.2012 0003628 273.0379  87.0401 15.69945202 34927,6737.191,91.723,361.5,356.612,0.0
56789.0,STARLINK-6325,PAYLOAD,2024-01-07 11:06:58,15.69927984,0.0003351,69.9975,151.4099,268.8425,91.2387,1.4005e-07,-1.96e-06,0.0,0 STARLINK-6325,1 56789U 23078Y   24007.46317720 -.00000196  00000-0  14005-6 0  9991,2 56789  69.9975 151.4099 0003351 268.8425  91.2387 15.69927984 35028,6737.24,91.724,361.363,356.847,0.0
56789.0,STARLINK-6325,PAYLOAD,2024-01-07 12:38:43,15.69935674,0.0003333,69.9978,151.2304,270.8183,89.2631,-1.0014e-05,-1.417e-05,0.0,0 STARLINK-6325,1 56789U 23078Y   24007.52689223 -.00001417  00000-0 -10014-4 0  9990,2 56789  69.9978 151.2304 0003333 270.8183  89.2631 15.69935674 35442,6737.218,91.724,361.329,356.838,0.0
56789.0,STARLINK-6325,PAYLOAD,2024-01-07 18:45:43,15.69940917,0.0003345,69.998,150.5146,270.6966,89.3846,-1.4616e-05,-1.971e-05,0.0,0 STARLINK-6325,1 56789U 23078Y   24007.78175510 -.00001971  00000-0 -14616-4 0  9994,2 56789  69.9980 150.5146 0003345 270.6966  89.3846 15.69940917 35075,6737.203,91.723,361.322,356.814,0.0
